{
  "type": "FeatureCollection",
  "features": [
    {
      "type": "Feature",
      "properties": {
        "norad_id": 41026,
        "name": "YAOGAN-28",
        "group": "resource",
        "lat": -1.0616203126589614,
        "lon": -50.822741587266414,
        "alt_km": 492.8674385886352,
        "timestamp": "2025-12-17T15:50:09.434133+00:00",
        "meta_object_name": "YAOGAN-28",
        "meta_object_id": "2015-064A",
        "meta_epoch": "2025-12-17T08:44:39.737184",
        "meta_mean_motion": 15.24430429,
        "meta_eccentricity": 0.00125544,
        "meta_inclination": 97.2803,
        "meta_ra_of_asc_node": 129.0259,
        "meta_arg_of_pericenter": 111.2423,
        "meta_mean_anomaly": 249.0157,
        "meta_ephemeris_type": 0,
        "meta_classification_type": "U",
        "meta_norad_cat_id": 41026,
        "meta_element_set_no": 999,
        "meta_rev_at_epoch": 56295,
        "meta_bstar": 0.00026810417,
        "meta_mean_motion_dot": 6.522e-05,
        "meta_mean_motion_ddot": 0,
        "tle_line1": "1 41026U 15064A   25351.36434881  .00006522  00000+0  26810-3 0  9996",
        "tle_line2": "2 41026  97.2803 129.0259 0012554 111.2423 249.0157 15.24430429562952"
      },
      "geometry": {
        "type": "Point",
        "coordinates": [
          -50.822741587266414,
          -1.0616203126589614
        ]
      }
    },
    {
      "type": "Feature",
      "properties": {
        "norad_id": 41038,
        "name": "YAOGAN-29",
        "group": "resource",
        "lat": -79.60049733505207,
        "lon": 144.63411528741332,
        "alt_km": 627.4846203681036,
        "timestamp": "2025-12-17T15:50:09.434143+00:00",
        "meta_object_name": "YAOGAN-29",
        "meta_object_id": "2015-069A",
        "meta_epoch": "2025-12-17T08:10:26.487840",
        "meta_mean_motion": 14.82886235,
        "meta_eccentricity": 2.74e-05,
        "meta_inclination": 98.022,
        "meta_ra_of_asc_node": 14.5275,
        "meta_arg_of_pericenter": 201.8229,
        "meta_mean_anomaly": 158.2973,
        "meta_ephemeris_type": 0,
        "meta_classification_type": "U",
        "meta_norad_cat_id": 41038,
        "meta_element_set_no": 999,
        "meta_rev_at_epoch": 54367,
        "meta_bstar": 3.250751e-06,
        "meta_mean_motion_dot": -2.8e-07,
        "meta_mean_motion_ddot": 0,
        "tle_line1": "1 41038U 15069A   25351.34058435 -.00000028  00000+0  32508-5 0  9998",
        "tle_line2": "2 41038  98.0220  14.5275 0000274 201.8229 158.2973 14.82886235543677"
      },
      "geometry": {
        "type": "Point",
        "coordinates": [
          144.63411528741332,
          -79.60049733505207
        ]
      }
    },
    {
      "type": "Feature",
      "properties": {
        "norad_id": 41167,
        "name": "KENT RIDGE 1",
        "group": "resource",
        "lat": -4.5772265578467,
        "lon": 12.060832944258062,
        "alt_km": 492.77663363506053,
        "timestamp": "2025-12-17T15:50:09.434154+00:00",
        "meta_object_name": "KENT RIDGE 1",
        "meta_object_id": "2015-077B",
        "meta_epoch": "2025-12-17T03:57:31.233312",
        "meta_mean_motion": 15.21671932,
        "meta_eccentricity": 0.00084828,
        "meta_inclination": 14.978,
        "meta_ra_of_asc_node": 178.304,
        "meta_arg_of_pericenter": 193.5455,
        "meta_mean_anomaly": 166.4639,
        "meta_ephemeris_type": 0,
        "meta_classification_type": "U",
        "meta_norad_cat_id": 41167,
        "meta_element_set_no": 999,
        "meta_rev_at_epoch": 55331,
        "meta_bstar": 0.00014001964,
        "meta_mean_motion_dot": 4.017e-05,
        "meta_mean_motion_ddot": 0,
        "tle_line1": "1 41167U 15077B   25351.16494483  .00004017  00000+0  14002-3 0  9995",
        "tle_line2": "2 41167  14.9780 178.3040 0008482 193.5455 166.4639 15.21671932553316"
      },
      "geometry": {
        "type": "Point",
        "coordinates": [
          12.060832944258062,
          -4.5772265578467
        ]
      }
    },
    {
      "type": "Feature",
      "properties": {
        "norad_id": 41194,
        "name": "GAOFEN-4",
        "group": "resource",
        "lat": -0.01062864167867721,
        "lon": 69.72832875607173,
        "alt_km": 35789.12993564936,
        "timestamp": "2025-12-17T15:50:09.434166+00:00",
        "meta_object_name": "GAOFEN-4",
        "meta_object_id": "2015-083A",
        "meta_epoch": "2025-12-16T16:30:21.701088",
        "meta_mean_motion": 1.0027459,
        "meta_eccentricity": 0.00029122,
        "meta_inclination": 0.1803,
        "meta_ra_of_asc_node": 81.6263,
        "meta_arg_of_pericenter": 95.6325,
        "meta_mean_anomaly": 261.5967,
        "meta_ephemeris_type": 0,
        "meta_classification_type": "U",
        "meta_norad_cat_id": 41194,
        "meta_element_set_no": 999,
        "meta_rev_at_epoch": 3669,
        "meta_bstar": 0,
        "meta_mean_motion_dot": -3.11e-06,
        "meta_mean_motion_ddot": 0,
        "tle_line1": "1 41194U 15083A   25350.68775117 -.00000311  00000+0  00000+0 0  9997",
        "tle_line2": "2 41194   0.1803  81.6263 0002912  95.6325 261.5967  1.00274590 36691"
      },
      "geometry": {
        "type": "Point",
        "coordinates": [
          69.72832875607173,
          -0.01062864167867721
        ]
      }
    },
    {
      "type": "Feature",
      "properties": {
        "norad_id": 41240,
        "name": "JASON-3",
        "group": "resource",
        "lat": 62.49197651887168,
        "lon": -153.88396070432964,
        "alt_km": 1309.3260657113951,
        "timestamp": "2025-12-17T15:50:09.434177+00:00",
        "meta_object_name": "JASON-3",
        "meta_object_id": "2016-002A",
        "meta_epoch": "2025-12-17T04:15:27.302976",
        "meta_mean_motion": 12.87626743,
        "meta_eccentricity": 0.00071763,
        "meta_inclination": 66.0395,
        "meta_ra_of_asc_node": 148.4944,
        "meta_arg_of_pericenter": 271.082,
        "meta_mean_anomaly": 88.9376,
        "meta_ephemeris_type": 0,
        "meta_classification_type": "U",
        "meta_norad_cat_id": 41240,
        "meta_element_set_no": 999,
        "meta_rev_at_epoch": 46381,
        "meta_bstar": 5.7893109e-05,
        "meta_mean_motion_dot": -4.8e-07,
        "meta_mean_motion_ddot": 0,
        "tle_line1": "1 41240U 16002A   25351.17739934 -.00000048  00000+0  57893-4 0  9997",
        "tle_line2": "2 41240  66.0395 148.4944 0007176 271.0820  88.9376 12.87626743463816"
      },
      "geometry": {
        "type": "Point",
        "coordinates": [
          -153.88396070432964,
          62.49197651887168
        ]
      }
    },
    {
      "type": "Feature",
      "properties": {
        "norad_id": 41335,
        "name": "SENTINEL-3A",
        "group": "resource",
        "lat": 48.73385211398454,
        "lon": 46.635527605550976,
        "alt_km": 797.7553036837007,
        "timestamp": "2025-12-17T15:50:09.434188+00:00",
        "meta_object_name": "SENTINEL-3A",
        "meta_object_id": "2016-011A",
        "meta_epoch": "2025-12-17T07:11:21.145056",
        "meta_mean_motion": 14.26732466,
        "meta_eccentricity": 9.187e-05,
        "meta_inclination": 98.631,
        "meta_ra_of_asc_node": 56.2481,
        "meta_arg_of_pericenter": 92.4376,
        "meta_mean_anomaly": 267.691,
        "meta_ephemeris_type": 0,
        "meta_classification_type": "U",
        "meta_norad_cat_id": 41335,
        "meta_element_set_no": 999,
        "meta_rev_at_epoch": 51212,
        "meta_bstar": 6.5493938e-05,
        "meta_mean_motion_dot": 1.15e-06,
        "meta_mean_motion_ddot": 0,
        "tle_line1": "1 41335U 16011A   25351.29955029  .00000115  00000+0  65494-4 0  9990",
        "tle_line2": "2 41335  98.6310  56.2481 0000918  92.4376 267.6910 14.26732466512123"
      },
      "geometry": {
        "type": "Point",
        "coordinates": [
          46.635527605550976,
          48.73385211398454
        ]
      }
    },
    {
      "type": "Feature",
      "properties": {
        "norad_id": 41556,
        "name": "ZIYUAN 3-02 (ZY 3-02)",
        "group": "resource",
        "lat": 34.818778929435105,
        "lon": 60.55674897481291,
        "alt_km": 507.48657885943976,
        "timestamp": "2025-12-17T15:50:09.434199+00:00",
        "meta_object_name": "ZIYUAN 3-02 (ZY 3-02)",
        "meta_object_id": "2016-033A",
        "meta_epoch": "2025-12-17T07:47:15.587808",
        "meta_mean_motion": 15.21121996,
        "meta_eccentricity": 0.00108287,
        "meta_inclination": 97.4045,
        "meta_ra_of_asc_node": 65.4165,
        "meta_arg_of_pericenter": 229.3062,
        "meta_mean_anomaly": 130.7233,
        "meta_ephemeris_type": 0,
        "meta_classification_type": "U",
        "meta_norad_cat_id": 41556,
        "meta_element_set_no": 999,
        "meta_rev_at_epoch": 53033,
        "meta_bstar": 0.00025133196,
        "meta_mean_motion_dot": 5.532e-05,
        "meta_mean_motion_ddot": 0,
        "tle_line1": "1 41556U 16033A   25351.32448597  .00005532  00000+0  25133-3 0  9993",
        "tle_line2": "2 41556  97.4045  65.4165 0010828 229.3062 130.7233 15.21121996530332"
      },
      "geometry": {
        "type": "Point",
        "coordinates": [
          60.55674897481291,
          34.818778929435105
        ]
      }
    }
  ]
}